{
    "links": {
        "self": "http://www.neowsapp.com/rest/v1/neo/3766431?api_key=iIulBulltgU6a56xZRHN4H3l9WmuAYTsLGpBGhQ2"
    },
    "id": "3766431",
    "neo_reference_id": "3766431",
    "name": "(2017 AE13)",
    "designation": "2017 AE13",
    "nasa_jpl_url": "http://ssd.jpl.nasa.gov/sbdb.cgi?sstr=3766431",
    "absolute_magnitude_h": 24.1,
    "estimated_diameter": {
        "kilometers": {
            "estimated_diameter_min": 0.040230458,
            "estimated_diameter_max": 0.0899580388
        },
        "meters": {
            "estimated_diameter_min": 40.2304579834,
            "estimated_diameter_max": 89.9580388169
        },
        "miles": {
            "estimated_diameter_min": 0.0249980399,
            "estimated_diameter_max": 0.0558973165
        },
        "feet": {
            "estimated_diameter_min": 131.9896957704,
            "estimated_diameter_max": 295.1379320721
        }
    },
    "is_potentially_hazardous_asteroid": false,
    "close_approach_data": [
        {
            "close_approach_date": "1952-08-18",
            "close_approach_date_full": "1952-Aug-18 21:01",
            "epoch_date_close_approach": -548132340000,
            "relative_velocity": {
                "kilometers_per_second": "20.3519837679",
                "kilometers_per_hour": "73267.1415644515",
                "miles_per_hour": "45525.3524904227"
            },
            "miss_distance": {
                "astronomical": "0.2938919615",
                "lunar": "114.3239730235",
                "kilometers": "43965611.450522005",
                "miles": "27318964.158153469"
            },
            "orbiting_body": "Earth"
        },
        {
            "close_approach_date": "2005-08-08",
            "close_approach_date_full": "2005-Aug-08 09:02",
            "epoch_date_close_approach": 1123491720000,
            "relative_velocity": {
                "kilometers_per_second": "26.696295788",
                "kilometers_per_hour": "96106.6648368047",
                "miles_per_hour": "59716.9440481801"
            },
            "miss_distance": {
                "astronomical": "0.4859024759",
                "lunar": "189.0160631251",
                "kilometers": "72689975.422366333",
                "miles": "45167456.2846800754"
            },
            "orbiting_body": "Earth"
        },
        {
            "close_approach_date": "2016-12-24",
            "close_approach_date_full": "2016-Dec-24 00:58",
            "epoch_date_close_approach": 1482541080000,
            "relative_velocity": {
                "kilometers_per_second": "13.1482755497",
                "kilometers_per_hour": "47333.7919788559",
                "miles_per_hour": "29411.3775770841"
            },
            "miss_distance": {
                "astronomical": "0.0676410522",
                "lunar": "26.3123693058",
                "kilometers": "10118957.333678814",
                "miles": "6287628.5259390732"
            },
            "orbiting_body": "Earth"
        },
        {
            "close_approach_date": "2069-09-07",
            "close_approach_date_full": "2069-Sep-07 20:09",
            "epoch_date_close_approach": 3145810140000,
            "relative_velocity": {
                "kilometers_per_second": "12.6605445943",
                "kilometers_per_hour": "45577.960539403",
                "miles_per_hour": "28320.3722029418"
            },
            "miss_distance": {
                "astronomical": "0.2078195588",
                "lunar": "80.8418083732",
                "kilometers": "31089363.340819756",
                "miles": "19318034.5908183928"
            },
            "orbiting_body": "Earth"
        }
    ],
    "orbital_data": {
        "orbit_id": "3",
        "orbit_determination_date": "2017-04-06 08:21:06",
        "first_observation_date": "2017-01-04",
        "last_observation_date": "2017-01-26",
        "data_arc_in_days": 22,
        "observations_used": 12,
        "orbit_uncertainty": "7",
        "minimum_orbit_intersection": ".0139837",
        "jupiter_tisserand_invariant": "3.611",
        "epoch_osculation": "2459000.5",
        "eccentricity": ".5760851113536037",
        "semi_major_axis": "1.979835205951606",
        "inclination": "12.82688551322131",
        "ascending_node_longitude": "281.9429930762107",
        "orbital_period": "1017.517742924763",
        "perihelion_distance": ".8392816208691901",
        "perihelion_argument": "122.5153004440103",
        "aphelion_distance": "3.120388791034022",
        "perihelion_time": "2458730.106035328748",
        "mean_anomaly": "95.66597531935962",
        "mean_motion": ".3538021842893986",
        "equinox": "J2000",
        "orbit_class": {
            "orbit_class_type": "APO",
            "orbit_class_description": "Near-Earth asteroid orbits which cross the Earth’s orbit similar to that of 1862 Apollo",
            "orbit_class_range": "a (semi-major axis) > 1.0 AU; q (perihelion) < 1.017 AU"
        }
    },
    "is_sentry_object": false
}